{
  "type": "FeatureCollection",
  "features": [
    {
      "type": "Feature",
      "properties": {
        "norad_id": 38163,
        "name": "FENGYUN 1C DEB",
        "group": "fengyun-1c-debris",
        "lat": 25.21490602986239,
        "lon": -147.8014458678288,
        "alt_km": 858.0946672132795,
        "timestamp": "2025-12-17T07:00:47.194723+00:00",
        "meta_object_name": "FENGYUN 1C DEB",
        "meta_object_id": "1999-025ERL",
        "meta_epoch": "2025-12-16T21:44:03.196320",
        "meta_mean_motion": 14.05925932,
        "meta_eccentricity": 0.00761595,
        "meta_inclination": 99.1283,
        "meta_ra_of_asc_node": 27.4671,
        "meta_arg_of_pericenter": 230.7287,
        "meta_mean_anomaly": 128.7108,
        "meta_ephemeris_type": 0,
        "meta_classification_type": "U",
        "meta_norad_cat_id": 38163,
        "meta_element_set_no": 999,
        "meta_rev_at_epoch": 24600,
        "meta_bstar": 0.00076779653,
        "meta_mean_motion_dot": 1.244e-05,
        "meta_mean_motion_ddot": 0,
        "tle_line1": "1 38163U 99025ERL 25350.90559255  .00001244  00000+0  76780-3 0  9992",
        "tle_line2": "2 38163  99.1283  27.4671 0076159 230.7287 128.7108 14.05925932246008"
      },
      "geometry": {
        "type": "Point",
        "coordinates": [
          -147.8014458678288,
          25.21490602986239
        ]
      }
    },
    {
      "type": "Feature",
      "properties": {
        "norad_id": 38166,
        "name": "FENGYUN 1C DEB",
        "group": "fengyun-1c-debris",
        "lat": 79.99841033399395,
        "lon": 29.534604903520357,
        "alt_km": 759.2301217527647,
        "timestamp": "2025-12-17T07:00:47.194735+00:00",
        "meta_object_name": "FENGYUN 1C DEB",
        "meta_object_id": "1999-025ERP",
        "meta_epoch": "2025-12-16T05:26:45.938976",
        "meta_mean_motion": 14.30993928,
        "meta_eccentricity": 0.00520425,
        "meta_inclination": 99.0778,
        "meta_ra_of_asc_node": 93.4587,
        "meta_arg_of_pericenter": 34.262,
        "meta_mean_anomaly": 326.1901,
        "meta_ephemeris_type": 0,
        "meta_classification_type": "U",
        "meta_norad_cat_id": 38166,
        "meta_element_set_no": 999,
        "meta_rev_at_epoch": 63822,
        "meta_bstar": 0.0018694892,
        "meta_mean_motion_dot": 4.947e-05,
        "meta_mean_motion_ddot": 0,
        "tle_line1": "1 38166U 99025ERP 25350.22692059  .00004947  00000+0  18695-2 0  9993",
        "tle_line2": "2 38166  99.0778  93.4587 0052042  34.2620 326.1901 14.30993928638223"
      },
      "geometry": {
        "type": "Point",
        "coordinates": [
          29.534604903520357,
          79.99841033399395
        ]
      }
    },
    {
      "type": "Feature",
      "properties": {
        "norad_id": 38169,
        "name": "FENGYUN 1C DEB",
        "group": "fengyun-1c-debris",
        "lat": 12.81700643908252,
        "lon": 148.03677114877894,
        "alt_km": 665.9124464857741,
        "timestamp": "2025-12-17T07:00:47.194747+00:00",
        "meta_object_name": "FENGYUN 1C DEB",
        "meta_object_id": "1999-025ERS",
        "meta_epoch": "2025-12-15T18:21:30.032352",
        "meta_mean_motion": 14.71529731,
        "meta_eccentricity": 0.00319719,
        "meta_inclination": 98.978,
        "meta_ra_of_asc_node": 324.2924,
        "meta_arg_of_pericenter": 58.8133,
        "meta_mean_anomaly": 301.6199,
        "meta_ephemeris_type": 0,
        "meta_classification_type": "U",
        "meta_norad_cat_id": 38169,
        "meta_element_set_no": 999,
        "meta_rev_at_epoch": 61313,
        "meta_bstar": 0.0017334952,
        "meta_mean_motion_dot": 0.00010805,
        "meta_mean_motion_ddot": 0,
        "tle_line1": "1 38169U 99025ERS 25349.76493093  .00010805  00000+0  17335-2 0  9990",
        "tle_line2": "2 38169  98.9780 324.2924 0031971  58.8133 301.6199 14.71529731613138"
      },
      "geometry": {
        "type": "Point",
        "coordinates": [
          148.03677114877894,
          12.81700643908252
        ]
      }
    },
    {
      "type": "Feature",
      "properties": {
        "norad_id": 38173,
        "name": "FENGYUN 1C DEB",
        "group": "fengyun-1c-debris",
        "lat": -77.15154880583569,
        "lon": -64.25758337545209,
        "alt_km": 891.6940005147253,
        "timestamp": "2025-12-17T07:00:47.194757+00:00",
        "meta_object_name": "FENGYUN 1C DEB",
        "meta_object_id": "1999-025ERW",
        "meta_epoch": "2025-12-16T11:20:48.017472",
        "meta_mean_motion": 14.37192423,
        "meta_eccentricity": 0.01631615,
        "meta_inclination": 99.0007,
        "meta_ra_of_asc_node": 250.8645,
        "meta_arg_of_pericenter": 101.6732,
        "meta_mean_anomaly": 260.2814,
        "meta_ephemeris_type": 0,
        "meta_classification_type": "U",
        "meta_norad_cat_id": 38173,
        "meta_element_set_no": 999,
        "meta_rev_at_epoch": 60697,
        "meta_bstar": 0.00064310917,
        "meta_mean_motion_dot": 2.179e-05,
        "meta_mean_motion_ddot": 0,
        "tle_line1": "1 38173U 99025ERW 25350.47277798  .00002179  00000+0  64311-3 0  9999",
        "tle_line2": "2 38173  99.0007 250.8645 0163161 101.6732 260.2814 14.37192423606974"
      },
      "geometry": {
        "type": "Point",
        "coordinates": [
          -64.25758337545209,
          -77.15154880583569
        ]
      }
    },
    {
      "type": "Feature",
      "properties": {
        "norad_id": 38493,
        "name": "FENGYUN 1C DEB",
        "group": "fengyun-1c-debris",
        "lat": -18.3670046749616,
        "lon": -46.56196869603063,
        "alt_km": 1118.0148024229184,
        "timestamp": "2025-12-17T07:00:47.194767+00:00",
        "meta_object_name": "FENGYUN 1C DEB",
        "meta_object_id": "1999-025ESC",
        "meta_epoch": "2025-12-13T14:58:26.647392",
        "meta_mean_motion": 13.62319496,
        "meta_eccentricity": 0.04264901,
        "meta_inclination": 99.0796,
        "meta_ra_of_asc_node": 306.9671,
        "meta_arg_of_pericenter": 242.9047,
        "meta_mean_anomaly": 112.7989,
        "meta_ephemeris_type": 0,
        "meta_classification_type": "U",
        "meta_norad_cat_id": 38493,
        "meta_element_set_no": 999,
        "meta_rev_at_epoch": 56510,
        "meta_bstar": 0.00047974908,
        "meta_mean_motion_dot": 6.42e-06,
        "meta_mean_motion_ddot": 0,
        "tle_line1": "1 38493U 99025ESC 25347.62391953  .00000642  00000+0  47975-3 0  9997",
        "tle_line2": "2 38493  99.0796 306.9671 0426490 242.9047 112.7989 13.62319496565102"
      },
      "geometry": {
        "type": "Point",
        "coordinates": [
          -46.56196869603063,
          -18.3670046749616
        ]
      }
    },
    {
      "type": "Feature",
      "properties": {
        "norad_id": 38494,
        "name": "FENGYUN 1C DEB",
        "group": "fengyun-1c-debris",
        "lat": -69.92355350460629,
        "lon": 97.21056237720609,
        "alt_km": 960.0463415167596,
        "timestamp": "2025-12-17T07:00:47.194777+00:00",
        "meta_object_name": "FENGYUN 1C DEB",
        "meta_object_id": "1999-025ESD",
        "meta_epoch": "2025-12-15T02:20:55.377888",
        "meta_mean_motion": 14.00279097,
        "meta_eccentricity": 0.03866916,
        "meta_inclination": 98.4312,
        "meta_ra_of_asc_node": 299.1227,
        "meta_arg_of_pericenter": 2.3579,
        "meta_mean_anomaly": 357.9298,
        "meta_ephemeris_type": 0,
        "meta_classification_type": "U",
        "meta_norad_cat_id": 38494,
        "meta_element_set_no": 999,
        "meta_rev_at_epoch": 7187,
        "meta_bstar": 0.0033612708,
        "meta_mean_motion_dot": 9.5e-05,
        "meta_mean_motion_ddot": 0,
        "tle_line1": "1 38494U 99025ESD 25349.09786317  .00009500  00000+0  33613-2 0  9998",
        "tle_line2": "2 38494  98.4312 299.1227 0386691   2.3579 357.9298 14.00279097 71873"
      },
      "geometry": {
        "type": "Point",
        "coordinates": [
          97.21056237720609,
          -69.92355350460629
        ]
      }
    },
    {
      "type": "Feature",
      "properties": {
        "norad_id": 38495,
        "name": "FENGYUN 1C DEB",
        "group": "fengyun-1c-debris",
        "lat": -54.60045207474582,
        "lon": 174.27877984484246,
        "alt_km": 1065.5632137542698,
        "timestamp": "2025-12-17T07:00:47.194787+00:00",
        "meta_object_name": "FENGYUN 1C DEB",
        "meta_object_id": "1999-025ESE",
        "meta_epoch": "2025-12-02T06:20:41.771904",
        "meta_mean_motion": 13.69106573,
        "meta_eccentricity": 0.0252581,
        "meta_inclination": 99.1709,
        "meta_ra_of_asc_node": 353.1036,
        "meta_arg_of_pericenter": 165.9119,
        "meta_mean_anomaly": 194.9245,
        "meta_ephemeris_type": 0,
        "meta_classification_type": "U",
        "meta_norad_cat_id": 38495,
        "meta_element_set_no": 999,
        "meta_rev_at_epoch": 60969,
        "meta_bstar": 0.0025866,
        "meta_mean_motion_dot": 2.759e-05,
        "meta_mean_motion_ddot": 0,
        "tle_line1": "1 38495U 99025ESE 25336.26437236  .00002759  00000+0  25866-2 0  9997",
        "tle_line2": "2 38495  99.1709 353.1036 0252581 165.9119 194.9245 13.69106573609697"
      },
      "geometry": {
        "type": "Point",
        "coordinates": [
          174.27877984484246,
          -54.60045207474582
        ]
      }
    }
  ]
}